{
    "links": {
        "self": "http://www.neowsapp.com/rest/v1/neo/3407476?api_key=iIulBulltgU6a56xZRHN4H3l9WmuAYTsLGpBGhQ2"
    },
    "id": "3407476",
    "neo_reference_id": "3407476",
    "name": "(2008 FJ)",
    "designation": "2008 FJ",
    "nasa_jpl_url": "http://ssd.jpl.nasa.gov/sbdb.cgi?sstr=3407476",
    "absolute_magnitude_h": 24.8,
    "estimated_diameter": {
        "kilometers": {
            "estimated_diameter_min": 0.0291443905,
            "estimated_diameter_max": 0.0651688382
        },
        "meters": {
            "estimated_diameter_min": 29.1443904535,
            "estimated_diameter_max": 65.1688382168
        },
        "miles": {
            "estimated_diameter_min": 0.018109479,
            "estimated_diameter_max": 0.0404940262
        },
        "feet": {
            "estimated_diameter_min": 95.6180819754,
            "estimated_diameter_max": 213.8085311752
        }
    },
    "is_potentially_hazardous_asteroid": false,
    "close_approach_data": [
        {
            "close_approach_date": "2008-03-11",
            "close_approach_date_full": "2008-Mar-11 09:53",
            "epoch_date_close_approach": 1205229180000,
            "relative_velocity": {
                "kilometers_per_second": "10.3319999112",
                "kilometers_per_hour": "37195.1996801663",
                "miles_per_hour": "23111.6506012678"
            },
            "miss_distance": {
                "astronomical": "0.1034359849",
                "lunar": "40.2365981261",
                "kilometers": "15473803.022392163",
                "miles": "9614975.3457833294"
            },
            "orbiting_body": "Earth"
        }
    ],
    "orbital_data": {
        "orbit_id": "7",
        "orbit_determination_date": "2017-04-06 09:03:55",
        "first_observation_date": "2008-03-27",
        "last_observation_date": "2008-04-02",
        "data_arc_in_days": 6,
        "observations_used": 14,
        "orbit_uncertainty": "9",
        "minimum_orbit_intersection": ".10328",
        "jupiter_tisserand_invariant": "3.292",
        "epoch_osculation": "2454553.5",
        "eccentricity": ".563391360505208",
        "semi_major_axis": "2.35648371695205",
        "inclination": "12.9653645178795",
        "ascending_node_longitude": "187.5090754108237",
        "orbital_period": "1321.280701088802",
        "perihelion_distance": "1.028861149650065",
        "perihelion_argument": "315.8212630031015",
        "aphelion_distance": "3.684106284254035",
        "perihelion_time": "2454512.771727537509",
        "mean_anomaly": "11.0969441046209",
        "mean_motion": ".2724629215452415",
        "equinox": "J2000",
        "orbit_class": {
            "orbit_class_type": "AMO",
            "orbit_class_description": "Near-Earth asteroid orbits similar to that of 1221 Amor",
            "orbit_class_range": "1.017 AU < q (perihelion) < 1.3 AU"
        }
    },
    "is_sentry_object": false
}